[{"OBJECT_NAME":"SAOCOM 1A","OBJECT_ID":"2018-076A","EPOCH":"2026-03-09T19:52:16.994208","MEAN_MOTION":14.82173547,"ECCENTRICITY":0.0001328,"INCLINATION":97.8894,"RA_OF_ASC_NODE":256.9984,"ARG_OF_PERICENTER":84.0114,"MEAN_ANOMALY":276.125,"EPHEMERIS_TYPE":0,"CLASSIFICATION_TYPE":"U","NORAD_CAT_ID":43641,"ELEMENT_SET_NO":999,"REV_AT_EPOCH":40138,"BSTAR":0.00018317,"MEAN_MOTION_DOT":1.407e-5,"MEAN_MOTION_DDOT":0},{"OBJECT_NAME":"H-2A R/B","OBJECT_ID":"2018-084L","EPOCH":"2026-03-09T14:28:20.133120","MEAN_MOTION":15.41344491,"ECCENTRICITY":0.0025468,"INCLINATION":98.8729,"RA_OF_ASC_NODE":285.9721,"ARG_OF_PERICENTER":25.6211,"MEAN_ANOMALY":334.6287,"EPHEMERIS_TYPE":0,"CLASSIFICATION_TYPE":"U","NORAD_CAT_ID":43682,"ELEMENT_SET_NO":999,"REV_AT_EPOCH":40576,"BSTAR":0.00049941,"MEAN_MOTION_DOT":0.0002099,"MEAN_MOTION_DDOT":0},{"OBJECT_NAME":"SAOCOM 1B","OBJECT_ID":"2020-059A","EPOCH":"2026-03-06T22:57:01.124064","MEAN_MOTION":14.82173062,"ECCENTRICITY":0.00015046,"INCLINATION":97.8885,"RA_OF_ASC_NODE":253.2654,"ARG_OF_PERICENTER":81.2285,"MEAN_ANOMALY":278.9098,"EPHEMERIS_TYPE":0,"CLASSIFICATION_TYPE":"U","NORAD_CAT_ID":46265,"ELEMENT_SET_NO":999,"REV_AT_EPOCH":29834,"BSTAR":0.00017595012,"MEAN_MOTION_DOT":1.349e-5,"MEAN_MOTION_DDOT":0},{"OBJECT_NAME":"CSS (TIANHE)","OBJECT_ID":"2021-035A","EPOCH":"2026-03-09T14:06:08.150112","MEAN_MOTION":15.60651211,"ECCENTRICITY":0.0006982,"INCLINATION":41.4666,"RA_OF_ASC_NODE":208.7841,"ARG_OF_PERICENTER":272.7102,"MEAN_ANOMALY":87.2938,"EPHEMERIS_TYPE":0,"CLASSIFICATION_TYPE":"U","NORAD_CAT_ID":48274,"ELEMENT_SET_NO":999,"REV_AT_EPOCH":27759,"BSTAR":0.00029943,"MEAN_MOTION_DOT":0.00025302,"MEAN_MOTION_DDOT":0},{"OBJECT_NAME":"COSMOS 2550","OBJECT_ID":"2021-056A","EPOCH":"2026-03-08T11:22:34.326624","MEAN_MOTION":15.33829151,"ECCENTRICITY":0.00083692,"INCLINATION":67.1451,"RA_OF_ASC_NODE":44.6088,"ARG_OF_PERICENTER":269.6014,"MEAN_ANOMALY":90.4182,"EPHEMERIS_TYPE":0,"CLASSIFICATION_TYPE":"U","NORAD_CAT_ID":48865,"ELEMENT_SET_NO":999,"REV_AT_EPOCH":26327,"BSTAR":-1.3338e-8,"MEAN_MOTION_DOT":-1.92e-6,"MEAN_MOTION_DDOT":0},{"OBJECT_NAME":"CZ-2C R/B","OBJECT_ID":"2022-058K","EPOCH":"2026-03-09T03:02:18.075840","MEAN_MOTION":15.54191438,"ECCENTRICITY":0.00421595,"INCLINATION":50.1894,"RA_OF_ASC_NODE":321.1865,"ARG_OF_PERICENTER":198.4704,"MEAN_ANOMALY":161.4738,"EPHEMERIS_TYPE":0,"CLASSIFICATION_TYPE":"U","NORAD_CAT_ID":52794,"ELEMENT_SET_NO":999,"REV_AT_EPOCH":21004,"BSTAR":0.00062256153,"MEAN_MOTION_DOT":0.00042727,"MEAN_MOTION_DDOT":0},{"OBJECT_NAME":"CZ-2C R/B","OBJECT_ID":"2022-132E","EPOCH":"2026-03-09T13:31:58.213344","MEAN_MOTION":15.61827128,"ECCENTRICITY":0.0020632,"INCLINATION":97.2972,"RA_OF_ASC_NODE":71.8768,"ARG_OF_PERICENTER":91.8631,"MEAN_ANOMALY":268.4991,"EPHEMERIS_TYPE":0,"CLASSIFICATION_TYPE":"U","NORAD_CAT_ID":54039,"ELEMENT_SET_NO":999,"REV_AT_EPOCH":19035,"BSTAR":0.00045659,"MEAN_MOTION_DOT":0.00039978,"MEAN_MOTION_DDOT":0},{"OBJECT_NAME":"GSLV R/B","OBJECT_ID":"2022-138AN","EPOCH":"2026-03-09T17:17:59.229888","MEAN_MOTION":14.96774296,"ECCENTRICITY":0.002302,"INCLINATION":87.3876,"RA_OF_ASC_NODE":166.352,"ARG_OF_PERICENTER":146.6269,"MEAN_ANOMALY":213.6419,"EPHEMERIS_TYPE":0,"CLASSIFICATION_TYPE":"U","NORAD_CAT_ID":54149,"ELEMENT_SET_NO":999,"REV_AT_EPOCH":18393,"BSTAR":0.00032105,"MEAN_MOTION_DOT":3.719e-5,"MEAN_MOTION_DDOT":0},{"OBJECT_NAME":"XRISM","OBJECT_ID":"2023-137A","EPOCH":"2026-03-09T20:07:46.604640","MEAN_MOTION":15.11504468,"ECCENTRICITY":0.0008004,"INCLINATION":31.0015,"RA_OF_ASC_NODE":282.7003,"ARG_OF_PERICENTER":40.1535,"MEAN_ANOMALY":319.9694,"EPHEMERIS_TYPE":0,"CLASSIFICATION_TYPE":"U","NORAD_CAT_ID":57800,"ELEMENT_SET_NO":999,"REV_AT_EPOCH":13781,"BSTAR":0.00037325,"MEAN_MOTION_DOT":6.58e-5,"MEAN_MOTION_DDOT":0},{"OBJECT_NAME":"ACS3","OBJECT_ID":"2024-077B","EPOCH":"2026-03-09T20:35:31.747776","MEAN_MOTION":13.8961944,"ECCENTRICITY":0.0059813,"INCLINATION":97.2069,"RA_OF_ASC_NODE":9.9321,"ARG_OF_PERICENTER":76.3545,"MEAN_ANOMALY":284.427,"EPHEMERIS_TYPE":0,"CLASSIFICATION_TYPE":"U","NORAD_CAT_ID":59588,"ELEMENT_SET_NO":999,"REV_AT_EPOCH":9422,"BSTAR":0.019338,"MEAN_MOTION_DOT":0.00024067,"MEAN_MOTION_DDOT":0},{"OBJECT_NAME":"SZ-21 MODULE","OBJECT_ID":"2025-246C","EPOCH":"2026-03-08T17:40:24.022560","MEAN_MOTION":15.68463397,"ECCENTRICITY":0.00013651,"INCLINATION":41.4736,"RA_OF_ASC_NODE":209.2286,"ARG_OF_PERICENTER":296.9264,"MEAN_ANOMALY":63.1439,"EPHEMERIS_TYPE":0,"CLASSIFICATION_TYPE":"U","NORAD_CAT_ID":66515,"ELEMENT_SET_NO":999,"REV_AT_EPOCH":1792,"BSTAR":0.0004111263,"MEAN_MOTION_DOT":0.00047754,"MEAN_MOTION_DDOT":0}]
